STARLINK-31587          
1 59570U 24076G   26067.85851255  .00002422  00000+0  97556-4 0  9990
2 59570  43.0037  13.8613 0001636 266.6818  93.3846 15.27566597106395
TEVEL2-9                
1 63237U 25052AD  26068.70229538  .00018694  00000+0  67240-3 0  9992
2 63237  97.4057 324.3929 0007990 124.2475 235.9522 15.28633834 54816
